INMARSAT 4-F1           
1 28628U 05009A   26158.59982568  .00000046  00000+0  00000+0 0  9992
2 28628   5.1544  42.7371 0002762  36.1222 211.2047  1.00272546 77574
IRS-P5 (CARTOSAT-1)     
1 28649U 05017A   26158.81724903  .00001671  00000+0  17427-3 0  9996
2 28649  97.5311 182.3070 0002639  91.7693 268.3828 14.91025688142427
DIRECTV 8               
1 28659U 05019A   26158.60717163  .00000016  00000+0  00000+0 0  9993
2 28659   0.0176  10.0104 0002924  72.3447 273.1915  1.00271292 76977
GALAXY 28 (G-28)        
1 28702U 05022A   26158.76801706 -.00000185  00000+0  00000+0 0  9998
2 28702   3.2754  79.0455 0002818 352.8963  73.6032  1.00273000 51883
SJ-7                    
1 28737U 05024A   26158.81742257  .00009037  00000+0  40434-3 0  9992
2 28737  97.7293 188.6697 0017102  68.3743 291.9312 15.21400874146609
THAICOM 4               
1 28786U 05028A   26158.79702624 -.00000347  00000+0  00000+0 0  9998
2 28786   0.2201  86.0446 0001938 348.4889 228.1024  1.00270716 52157
REIMEI (INDEX)          
1 28810U 05031B   26158.58958330  .00005541  00000+0  33604-3 0  9994
2 28810  98.0128 282.1527 0020560 141.6570 218.6125 15.10822131129543
ANIK F1R                
1 28868U 05036A   26158.68086671 -.00000061  00000+0  00000+0 0  9996
2 28868   4.2875  76.6976 0004348   3.9429 313.2783  1.00272662 46358
NAVSTAR 57 (USA 183)    
1 28874U 05038A   26158.40402624 -.00000035  00000+0  00000+0 0  9996
2 28874  54.8864 273.5725 0127805 296.0848  81.4655  2.00566372151644
SYRACUSE 3A             
1 28885U 05041B   26158.78263949  .00000144  00000+0  00000+0 0  9998
2 28885   4.6198  75.9516 0003114 338.6850 169.9300  1.00270834 75652
BEIJING 1               
1 28890U 05043A   26158.85251976  .00000327  00000+0  72490-4 0  9991
2 28890  98.2903 292.0140 0013738 315.2930  44.7163 14.63527117 99283
SINAH 1                 
1 28893U 05043D   26158.82834654  .00000375  00000+0  80723-4 0  9992
2 28893  98.2849 293.0960 0013350 308.8572  51.1438 14.64151675 99152
CUBESAT XI-V            
1 28895U 05043F   26158.68619350  .00001724  00000+0  27894-3 0  9990
2 28895  98.2976 314.1093 0013074 232.4490 127.5529 14.72607423100351
INMARSAT 4-F2           
1 28899U 05044A   26158.58786443 -.00000247  00000+0  00000+0 0  9998
2 28899   5.0817  43.7093 0003059  32.5652 174.8352  1.00271640 75424
COSMOS 2416 (RODNIK-S 1)
1 28908U 05048A   26158.70291712  .00000029  00000+0  11294-3 0  9995
2 28908  82.4684 313.7254 0008085 183.8894 186.7809 12.55600462937715
METEOSAT-9 (MSG-2)      
1 28912U 05049B   26158.78246617  .00000137  00000+0  00000+0 0  9992
2 28912   9.3393  54.2585 0001734 348.5772 180.7301  1.00268552  6905
EUTELSAT 174A           
1 28924U 05052A   26158.66491999  .00000023  00000+0  00000+0 0  9995
2 28924   4.1945  76.6438 0006418   0.5496 232.2371  1.00269750 52239
ECHOSTAR 10             
1 28935U 06003A   26158.68026006 -.00000041  00000+0  00000+0 0  9990
2 28935   0.0169 354.2320 0002112  50.7280 345.8429  1.00271438 74363
SPAINSAT                
1 28945U 06007A   26158.37348999 -.00000202  00000+0  00000+0 0  9998
2 28945   0.5368  86.7158 0004982 348.1198 285.2269  1.00272868 74115
JCSAT-5A                
1 29045U 06010A   26158.79953957 -.00000313  00000+0  00000+0 0  9999
2 29045   1.0842  84.3302 0002118  10.2050 221.5446  1.00270421 73671
ASTRA 1KR               
1 29055U 06012A   26158.77711711  .00000134  00000+0  00000+0 0  9990
2 29055   0.4485  83.2055 0003545 351.7636 119.9670  1.00272294 45600
RESURS-DK 1             
1 29228U 06021A   26158.84689052  .00002762  00000+0  16131-3 0  9997
2 29228  69.9339   3.7309 0006429 299.4209  60.6315 15.13176415101166
GALAXY 16 (G-16)        
1 29236U 06023A   26158.68242674 -.00000112  00000+0  00000+0 0  9997
2 29236   0.0019 244.0292 0002728 192.2785 326.4528  1.00271915 72870
ARIRANG-2 (KOMPSAT-2)   
1 29268U 06031A   26158.87392421  .00000520  00000+0  10605-3 0  9996
2 29268  97.8311 343.7712 0015842 101.2968   5.8999 14.64655081 60110
EUTELSAT 33F            
1 29270U 06032A   26158.77995281  .00000171  00000+0  00000+0 0  9998
2 29270   1.6363  82.3501 0003463 350.3779 137.3508  1.00274515 47216
JCSAT-3A                
1 29272U 06033A   26158.82585058 -.00000330  00000+0  00000+0 0  9992
2 29272   0.0137 308.6244 0002129 136.8868 236.0197  1.00270793 47644
KOREASAT 5 (MUGUNGWHA 5)
1 29349U 06034A   26158.79572623 -.00000343  00000+0  00000+0 0  9992
2 29349   1.7601  83.0984 0001415  38.1091 174.5136  1.00272436 41220
HINODE (SOLAR-B)        
1 29479U 06041A   26158.64687845  .00000900  00000+0  16314-3 0  9998
2 29479  98.0548 174.9399 0016469 322.4579  37.5475 14.68610457 53479
NAVSTAR 58 (USA 190)    
1 29486U 06042A   26157.27303984  .00000092  00000+0  00000+0 0  9997
2 29486  54.7093 151.7723 0106366  54.1524 125.0487  2.00570539144173
DIRECTV 9S              
1 29494U 06043A   26158.68199339 -.00000099  00000+0  00000+0 0  9998
2 29494   2.3953  81.0171 0005088   6.2111 313.1889  1.00271622 51282
OPTUS D1                
1 29495U 06043B   26158.73208603 -.00000168  00000+0  00000+0 0  9997
2 29495   3.0096  79.7717 0003661 352.7369 239.1771  1.00271759 72021
